[
    {
        "Altitude(m)": 610399.5148664835,
        "Argument of Periapsis(deg)": 0.0,
        "Eccentricity": 0.0,
        "Inclination(deg)": 60.0,
        "Latitude(deg)": 52.11129639970598,
        "Longitude(deg)": -32.415812992479644,
        "Mean Anomaly(deg)": 65.4545,
        "RAAN(deg)": 20.0,
        "Satellite Name": "Test1 92",
        "Satellite Number": 92,
        "Semi-Major Axis(m)": 6980739.136638005,
        "Time(s)": 0
    },
    {
        "Altitude(m)": 610481.666457234,
        "Argument of Periapsis(deg)": 0.00010418945913296404,
        "Eccentricity": 0.0,
        "Inclination(deg)": 60.0,
        "Latitude(deg)": 52.470899927749976,
        "Longitude(deg)": -31.633678994276043,
        "Mean Anomaly(deg)": 66.07460614546183,
        "RAAN(deg)": 19.99957995086026,
        "Satellite Name": "Test1 92",
        "Satellite Number": 92,
        "Semi-Major Axis(m)": 6980739.136638005,
        "Time(s)": 10
    },
    {
        "Altitude(m)": 610562.356871915,
        "Argument of Periapsis(deg)": 0.0002083789182659281,
        "Eccentricity": 0.0,
        "Inclination(deg)": 60.0,
        "Latitude(deg)": 52.824656081157265,
        "Longitude(deg)": -30.838131992851434,
        "Mean Anomaly(deg)": 66.69471229092365,
        "RAAN(deg)": 19.999159901720517,
        "Satellite Name": "Test1 92",
        "Satellite Number": 92,
        "Semi-Major Axis(m)": 6980739.136638005,
        "Time(s)": 20
    },
    {
        "Altitude(m)": 610641.5386443504,
        "Argument of Periapsis(deg)": 0.00031256837739889213,
        "Eccentricity": 0.0,
        "Inclination(deg)": 60.0,
        "Latitude(deg)": 53.17239533327735,
        "Longitude(deg)": -30.02900747453087,
        "Mean Anomaly(deg)": 67.3148184363855,
        "RAAN(deg)": 19.99873985258077,
        "Satellite Name": "Test1 92",
        "Satellite Number": 92,
        "Semi-Major Axis(m)": 6980739.136638005,
        "Time(s)": 30
    },
    {
        "Altitude(m)": 610719.1652648206,
        "Argument of Periapsis(deg)": 0.0004167578365318562,
        "Eccentricity": 0.0,
        "Inclination(deg)": 60.0,
        "Latitude(deg)": 53.513944681512015,
        "Longitude(deg)": -29.206152537915003,
        "Mean Anomaly(deg)": 67.93492458184731,
        "RAAN(deg)": 19.998319803441028,
        "Satellite Name": "Test1 92",
        "Satellite Number": 92,
        "Semi-Major Axis(m)": 6980739.136638005,
        "Time(s)": 40
    },
    {
        "Altitude(m)": 610795.1912023716,
        "Argument of Periapsis(deg)": 0.0005209472956648203,
        "Eccentricity": 0.0,
        "Inclination(deg)": 60.0,
        "Latitude(deg)": 53.84912776927411,
        "Longitude(deg)": -28.36942830806173,
        "Mean Anomaly(deg)": 68.55503072730914,
        "RAAN(deg)": 19.997899754301287,
        "Satellite Name": "Test1 92",
        "Satellite Number": 92,
        "Semi-Major Axis(m)": 6980739.136638005,
        "Time(s)": 50
    },
    {
        "Altitude(m)": 610869.5719266718,
        "Argument of Periapsis(deg)": 0.0006251367547977843,
        "Eccentricity": 0.0,
        "Inclination(deg)": 60.0,
        "Latitude(deg)": 54.17776503227358,
        "Longitude(deg)": -27.51871090344121,
        "Mean Anomaly(deg)": 69.17513687277096,
        "RAAN(deg)": 19.997479705161545,
        "Satellite Name": "Test1 92",
        "Satellite Number": 92,
        "Semi-Major Axis(m)": 6980739.136638005,
        "Time(s)": 60
    },
    {
        "Altitude(m)": 610942.2639293178,
        "Argument of Periapsis(deg)": 0.0007293262139307483,
        "Eccentricity": 0.0,
        "Inclination(deg)": 60.0,
        "Latitude(deg)": 54.499673870791796,
        "Longitude(deg)": -26.653892464232587,
        "Mean Anomaly(deg)": 69.79524301823281,
        "RAAN(deg)": 19.9970596560218,
        "Satellite Name": "Test1 92",
        "Satellite Number": 92,
        "Semi-Major Axis(m)": 6980739.136638005,
        "Time(s)": 70
    },
    {
        "Altitude(m)": 611013.2247446696,
        "Argument of Periapsis(deg)": 0.0008335156730637124,
        "Eccentricity": 0.0,
        "Inclination(deg)": 60.0,
        "Latitude(deg)": 54.81466884956761,
        "Longitude(deg)": -25.774883749215334,
        "Mean Anomaly(deg)": 70.41534916369464,
        "RAAN(deg)": 19.99663960688206,
        "Satellite Name": "Test1 92",
        "Satellite Number": 92,
        "Semi-Major Axis(m)": 6980739.136638005,
        "Time(s)": 80
    },
    {
        "Altitude(m)": 611082.4129701364,
        "Argument of Periapsis(deg)": 0.0009377051321966765,
        "Eccentricity": 0.0,
        "Inclination(deg)": 60.0,
        "Latitude(deg)": 55.12256192685725,
        "Longitude(deg)": -24.881615268469567,
        "Mean Anomaly(deg)": 71.03545530915646,
        "RAAN(deg)": 19.996219557742315,
        "Satellite Name": "Test1 92",
        "Satellite Number": 92,
        "Semi-Major Axis(m)": 6980739.136638005,
        "Time(s)": 90
    },
    {
        "Altitude(m)": 611149.7882859774,
        "Argument of Periapsis(deg)": 0.0010418945913296407,
        "Eccentricity": 0.0,
        "Inclination(deg)": 60.0,
        "Latitude(deg)": 55.42316271412726,
        "Longitude(deg)": -23.974038456166067,
        "Mean Anomaly(deg)": 71.6555614546183,
        "RAAN(deg)": 19.995799508602573,
        "Satellite Name": "Test1 92",
        "Satellite Number": 92,
        "Semi-Major Axis(m)": 6980739.136638005,
        "Time(s)": 100
    },
    {
        "Altitude(m)": 611215.311474536,
        "Argument of Periapsis(deg)": 0.0011460840504626045,
        "Eccentricity": 0.0,
        "Inclination(deg)": 60.0,
        "Latitude(deg)": 55.71627876770621,
        "Longitude(deg)": -23.052128386092864,
        "Mean Anomaly(deg)": 72.27566760008013,
        "RAAN(deg)": 19.99537945946283,
        "Satellite Name": "Test1 92",
        "Satellite Number": 92,
        "Semi-Major Axis(m)": 6980739.136638005,
        "Time(s)": 110
    },
    {
        "Altitude(m)": 611278.9444389323,
        "Argument of Periapsis(deg)": 0.0012502735095955685,
        "Eccentricity": 0.0,
        "Inclination(deg)": 60.0,
        "Latitude(deg)": 56.00171591355819,
        "Longitude(deg)": -22.115884992228153,
        "Mean Anomaly(deg)": 72.89577374554196,
        "RAAN(deg)": 19.99495941032309,
        "Satellite Name": "Test1 92",
        "Satellite Number": 92,
        "Semi-Major Axis(m)": 6980739.136638005,
        "Time(s)": 120
    },
    {
        "Altitude(m)": 611340.650221233,
        "Argument of Periapsis(deg)": 0.0013544629687285324,
        "Eccentricity": 0.0,
        "Inclination(deg)": 60.0,
        "Latitude(deg)": 56.27927860612379,
        "Longitude(deg)": -21.16533429351006,
        "Mean Anomaly(deg)": 73.51587989100379,
        "RAAN(deg)": 19.994539361183342,
        "Satellite Name": "Test1 92",
        "Satellite Number": 92,
        "Semi-Major Axis(m)": 6980739.136638005,
        "Time(s)": 130
    },
    {
        "Altitude(m)": 611400.3930200501,
        "Argument of Periapsis(deg)": 0.0014586524278614966,
        "Eccentricity": 0.0,
        "Inclination(deg)": 60.0,
        "Latitude(deg)": 56.548770321919726,
        "Longitude(deg)": -20.20053112015051,
        "Mean Anomaly(deg)": 74.13598603646562,
        "RAAN(deg)": 19.9941193120436,
        "Satellite Name": "Test1 92",
        "Satellite Number": 92,
        "Semi-Major Axis(m)": 6980739.136638005,
        "Time(s)": 140
    },
    {
        "Altitude(m)": 611458.138207551,
        "Argument of Periapsis(deg)": 0.0015628418869944607,
        "Eccentricity": 0.0,
        "Inclination(deg)": 60.0,
        "Latitude(deg)": 56.80999398829758,
        "Longitude(deg)": -19.221560298435474,
        "Mean Anomaly(deg)": 74.75609218192744,
        "RAAN(deg)": 19.99369926290386,
        "Satellite Name": "Test1 92",
        "Satellite Number": 92,
        "Semi-Major Axis(m)": 6980739.136638005,
        "Time(s)": 150
    },
    {
        "Altitude(m)": 611513.8523459495,
        "Argument of Periapsis(deg)": 0.0016670313461274247,
        "Eccentricity": 0.0,
        "Inclination(deg)": 60.0,
        "Latitude(deg)": 57.06275244741031,
        "Longitude(deg)": -18.228537787826607,
        "Mean Anomaly(deg)": 75.37619832738928,
        "RAAN(deg)": 19.99327921376412,
        "Satellite Name": "Test1 92",
        "Satellite Number": 92,
        "Semi-Major Axis(m)": 6980739.136638005,
        "Time(s)": 160
    },
    {
        "Altitude(m)": 611567.5032033772,
        "Argument of Periapsis(deg)": 0.0017712208052603888,
        "Eccentricity": 0.0,
        "Inclination(deg)": 60.0,
        "Latitude(deg)": 57.30684895504488,
        "Longitude(deg)": -17.221613262542228,
        "Mean Anomaly(deg)": 75.99630447285111,
        "RAAN(deg)": 19.992859164624374,
        "Satellite Name": "Test1 92",
        "Satellite Number": 92,
        "Semi-Major Axis(m)": 6980739.136638005,
        "Time(s)": 170
    },
    {
        "Altitude(m)": 611619.0597691914,
        "Argument of Periapsis(deg)": 0.001875410264393353,
        "Eccentricity": 0.0,
        "Inclination(deg)": 60.0,
        "Latitude(deg)": 57.54208771355321,
        "Longitude(deg)": -16.200971089696832,
        "Mean Anomaly(deg)": 76.61641061831294,
        "RAAN(deg)": 19.99243911548463,
        "Satellite Name": "Test1 92",
        "Satellite Number": 92,
        "Semi-Major Axis(m)": 6980739.136638005,
        "Time(s)": 180
    },
    {
        "Altitude(m)": 611668.4922686715,
        "Argument of Periapsis(deg)": 0.0019795997235263173,
        "Eccentricity": 0.0,
        "Inclination(deg)": 60.0,
        "Latitude(deg)": 57.76827443762914,
        "Longitude(deg)": -15.166831193423187,
        "Mean Anomaly(deg)": 77.23651676377476,
        "RAAN(deg)": 19.992019066344888,
        "Satellite Name": "Test1 92",
        "Satellite Number": 92,
        "Semi-Major Axis(m)": 6980739.136638005,
        "Time(s)": 190
    }
]